ITASAT
1 43786U 18099AE  24102.67027983  .00004780  00000+0  27097-3 0  9994
2 43786  97.4548 256.0906 0015635  65.1472 295.1383 15.13355818362822